#aV2021  9 22  0  0  0.00000000     288 DD+AD WGS84 FIT  NGA
## 2176 259200.00000000   300.00000000 59479 0.0000000000000
+   32     1  2  3  4  5  6  7  8  9 10 11 12 13 14 15 16 17
+         18 19 20 21 22 23 24 25 26 27 28 29 30 31 32  0  0
+          0  0  0  0  0  0  0  0  0  0  0  0  0  0  0  0  0
+          0  0  0  0  0  0  0  0  0  0  0  0  0  0  0  0  0
+          0  0  0  0  0  0  0  0  0  0  0  0  0  0  0  0  0
++         2  2  2  2  2  2  2  2  2  2  2  2  2  2  2  2  2
++         2  2  2  2  2  2  2  2  2  2  2  2  2  2  2  0  0
++         0  0  0  0  0  0  0  0  0  0  0  0  0  0  0  0  0
++         0  0  0  0  0  0  0  0  0  0  0  0  0  0  0  0  0
++         0  0  0  0  0  0  0  0  0  0  0  0  0  0  0  0  0
%c cc cc ccc ccc cccc cccc cccc cccc ccccc ccccc ccccc ccccc
%c cc cc ccc ccc cccc cccc cccc cccc ccccc ccccc ccccc ccccc
%f  0.0000000  0.000000000  0.00000000000  0.000000000000000
%f  0.0000000  0.000000000  0.00000000000  0.000000000000000
%i    0    0    0    0      0      0      0      0         0
%i    0    0    0    0      0      0      0      0         0
/*      NGA, ST. LOUIS,MO.                                  
/*   EPHEMERIS COMPUTED FROM 2 DAYS OF DATA                 
/*   EPOCHA v7 SMOOTHER                                     
/*   G2139 IERS2010 SATIGS SATAPC                           
*  2021  9 22 18  5  0.00000000
P  1 -13569.332871  22402.537660  -3393.213513    560.103877                    
V  1  -4185.236467   1896.076054  32136.506090     -0.109916                    
P  2  18525.260001  -8818.281784 -16258.470990   -633.734359                    
V  2  -9664.915009  19687.053842 -20788.956386     -0.020347                    
P  3 -11593.070120  12809.731421 -20248.952689   -298.588488                    
V  3 -25265.256204  -3455.485444  12442.644006     -0.135098                    
P  4  -3555.180658  20785.825846 -16103.933935   -204.229294                    
V  4  -9633.750391 -18177.276619 -21396.377122      0.001556                    
P  5  23138.895966  -6595.111681  11256.377291    -55.267986                    
V  5  14331.773959   3270.766324 -26985.948726     -0.012360                    
P  6  13819.061646   5669.252459 -21906.723367     79.583362                    
V  6 -16054.097672  22799.943748  -4161.497977      0.075739                    
P  7  -1190.700150  21163.178376  16063.172358    249.917205                    
V  7 -13566.819265  14804.827406 -21485.154981      0.068688                    
P  8 -11082.791672  11071.557188  21393.340597    -37.437831                    
V  8 -12339.872694 -24276.670812   6473.992498     -0.013640                    
P  9   6519.191520  24843.866626  -6780.967277   -361.301951                    
V  9  -6285.569061  -6458.020738 -30032.544727     -0.004249                    
P 10 -19192.801572 -11745.894856  14451.444895   -208.703724                    
V 10  18093.106094     14.465332  23961.148046     -0.079197                    
P 11  19666.095048  -5478.038368 -16998.109534     19.247618                    
V 11 -12140.726491  17908.508651 -19845.037513      0.018161                    
P 12  13179.501683 -11678.743628 -20092.731882   -101.123003                    
V 12  24448.145123   5196.850754  13309.202604     -0.054521                    
P 13  14806.040838  -2673.408765  21749.357168    189.188076                    
V 13   8005.187150  26759.859085  -2000.222884      0.054114                    
P 14  18755.455488  12615.104279  13989.321101     -4.107227                    
V 14 -17899.624878   -225.445447  24145.316335     -0.079733                    
P 15  10082.953073 -12855.840611  20500.190225   -119.225044                    
V 15  14995.586170  22600.808734   7010.889670      0.027480                    
P 16 -25618.991575    438.116109   7596.963680   -394.978477                    
V 16  -9308.394476  -3797.099666 -29737.866498     -0.063830                    
P 17  12851.259087  22330.621708  -5994.441140    508.524643                    
V 17    902.318825   8397.851693  30995.068139      0.056061                    
P 18    472.632746 -20267.623189  17097.700659    319.328404                    
V 18  14320.620869 -16451.807062 -19974.145325     -0.045016                    
P 19  15695.976101  15941.580059 -14710.179193     56.365203                    
V 19   4322.352403  17644.255259  24023.697136      0.049749                    
P 20  26381.745259  -1329.944914   -107.667876    519.007421                    
V 20     94.028611   3730.011683 -31442.481267     -0.001943                    
P 21 -16993.656333  19133.113306   6614.973858    144.048405                    
V 21   1291.209482  -8147.004041  30549.887720      0.019249                    
P 22 -18577.750033  11194.619741 -15020.124187   -506.872561                    
V 22 -19547.563230  -2594.770830  22192.705522      0.092704                    
P 23  -7708.348138 -14849.286347  20621.272995     54.186170                    
V 23  26202.856129    974.574045  10411.319265     -0.048217                    
P 24  14756.902804 -21719.448739   1787.535839    240.160571                    
V 24   2048.703804   4309.809357  31325.863768      0.079387                    
P 25   1688.784789 -15282.736439 -21917.703937    212.586372                    
V 25  27081.349428   2678.533617    488.045592      0.062568                    
P 26 -25751.058553  -4989.886489  -5107.185416    137.070613                    
V 26   6524.852865  -2816.853248 -30214.610928      0.041667                    
P 27 -15861.635060   -180.229009  21184.419681   -196.501288                    
V 27 -10867.950776 -24949.410864  -7920.357625     -0.052081                    
P 28  22699.052102  10643.914810   9004.762727    496.234630                    
V 28 -10964.685062    253.636105  29306.286211     -0.072431                    
P 29  -2450.215993 -24705.821253  -9386.295689   -415.618064                    
V 29   5923.262565  10445.086842 -29236.259746     -0.056507                    
P 30   8789.853706  13896.297960  20890.649218   -475.454450                    
V 30 -16591.424006  20683.833291  -7037.546379     -0.037273                    
P 31 -15845.599181  -3781.111837 -21151.213294   -141.141249                    
V 31  15571.511993 -21530.659906  -7389.557747     -0.019821                    
P 32 -15970.691361 -19250.208184  -9081.724012     -2.912248                    
V 32  -2602.534533 -11627.618508  28683.877749     -0.035800                    
EOF
